[{"OBJECT_NAME":"IRIDIUM 152","OBJECT_ID":"2018-047D","EPOCH":"2026-03-05T05:11:46.281696","MEAN_MOTION":14.34218226,"ECCENTRICITY":0.00022871,"INCLINATION":86.3981,"RA_OF_ASC_NODE":131.8122,"ARG_OF_PERICENTER":92.0003,"MEAN_ANOMALY":268.1455,"EPHEMERIS_TYPE":0,"CLASSIFICATION_TYPE":"U","NORAD_CAT_ID":43479,"ELEMENT_SET_NO":999,"REV_AT_EPOCH":40758,"BSTAR":4.2248505e-5,"MEAN_MOTION_DOT":1.38e-6,"MEAN_MOTION_DDOT":0},{"OBJECT_NAME":"IRIDIUM 147","OBJECT_ID":"2018-047E","EPOCH":"2026-03-05T05:20:53.881440","MEAN_MOTION":14.34220325,"ECCENTRICITY":0.00022234,"INCLINATION":86.3985,"RA_OF_ASC_NODE":131.8132,"ARG_OF_PERICENTER":99.3031,"MEAN_ANOMALY":260.8416,"EPHEMERIS_TYPE":0,"CLASSIFICATION_TYPE":"U","NORAD_CAT_ID":43480,"ELEMENT_SET_NO":999,"REV_AT_EPOCH":40758,"BSTAR":9.0392368e-5,"MEAN_MOTION_DOT":2.73e-6,"MEAN_MOTION_DDOT":0},{"OBJECT_NAME":"IRIDIUM 110","OBJECT_ID":"2018-047F","EPOCH":"2026-03-05T05:30:02.304576","MEAN_MOTION":14.34217759,"ECCENTRICITY":0.00024411,"INCLINATION":86.3988,"RA_OF_ASC_NODE":131.8993,"ARG_OF_PERICENTER":88.8972,"MEAN_ANOMALY":271.2504,"EPHEMERIS_TYPE":0,"CLASSIFICATION_TYPE":"U","NORAD_CAT_ID":43481,"ELEMENT_SET_NO":999,"REV_AT_EPOCH":40757,"BSTAR":6.32167e-7,"MEAN_MOTION_DOT":2.2e-7,"MEAN_MOTION_DDOT":0},{"OBJECT_NAME":"IRIDIUM 162","OBJECT_ID":"2018-047G","EPOCH":"2026-03-05T05:39:29.967264","MEAN_MOTION":14.43283406,"ECCENTRICITY":0.00021135,"INCLINATION":86.4507,"RA_OF_ASC_NODE":131.8363,"ARG_OF_PERICENTER":92.1255,"MEAN_ANOMALY":268.0188,"EPHEMERIS_TYPE":0,"CLASSIFICATION_TYPE":"U","NORAD_CAT_ID":43482,"ELEMENT_SET_NO":999,"REV_AT_EPOCH":41013,"BSTAR":0.00012716947,"MEAN_MOTION_DOT":4.48e-6,"MEAN_MOTION_DDOT":0},{"OBJECT_NAME":"IRIDIUM 160","OBJECT_ID":"2018-061A","EPOCH":"2026-03-05T04:12:02.449440","MEAN_MOTION":14.34218124,"ECCENTRICITY":0.00023715,"INCLINATION":86.3922,"RA_OF_ASC_NODE":100.3059,"ARG_OF_PERICENTER":91.9191,"MEAN_ANOMALY":268.2276,"EPHEMERIS_TYPE":0,"CLASSIFICATION_TYPE":"U","NORAD_CAT_ID":43569,"ELEMENT_SET_NO":999,"REV_AT_EPOCH":39846,"BSTAR":1.1368775e-5,"MEAN_MOTION_DOT":5.2e-7,"MEAN_MOTION_DDOT":0},{"OBJECT_NAME":"IRIDIUM 166","OBJECT_ID":"2018-061B","EPOCH":"2026-03-05T08:09:30.430656","MEAN_MOTION":14.34218022,"ECCENTRICITY":0.00021969,"INCLINATION":86.3921,"RA_OF_ASC_NODE":100.1889,"ARG_OF_PERICENTER":96.0083,"MEAN_ANOMALY":264.1363,"EPHEMERIS_TYPE":0,"CLASSIFICATION_TYPE":"U","NORAD_CAT_ID":43570,"ELEMENT_SET_NO":999,"REV_AT_EPOCH":39851,"BSTAR":1.8323602e-5,"MEAN_MOTION_DOT":7.1e-7,"MEAN_MOTION_DDOT":0},{"OBJECT_NAME":"IRIDIUM 158","OBJECT_ID":"2018-061C","EPOCH":"2026-03-05T04:02:54.364992","MEAN_MOTION":14.34217835,"ECCENTRICITY":0.00021266,"INCLINATION":86.3922,"RA_OF_ASC_NODE":100.2703,"ARG_OF_PERICENTER":89.4787,"MEAN_ANOMALY":270.6653,"EPHEMERIS_TYPE":0,"CLASSIFICATION_TYPE":"U","NORAD_CAT_ID":43571,"ELEMENT_SET_NO":999,"REV_AT_EPOCH":39845,"BSTAR":3.4479486e-5,"MEAN_MOTION_DOT":1.16e-6,"MEAN_MOTION_DDOT":0},{"OBJECT_NAME":"IRIDIUM 165","OBJECT_ID":"2018-061D","EPOCH":"2026-03-05T04:39:26.396928","MEAN_MOTION":14.34218447,"ECCENTRICITY":0.00022197,"INCLINATION":86.3922,"RA_OF_ASC_NODE":100.3035,"ARG_OF_PERICENTER":97.3972,"MEAN_ANOMALY":262.7476,"EPHEMERIS_TYPE":0,"CLASSIFICATION_TYPE":"U","NORAD_CAT_ID":43572,"ELEMENT_SET_NO":999,"REV_AT_EPOCH":39848,"BSTAR":4.0895546e-5,"MEAN_MOTION_DOT":1.34e-6,"MEAN_MOTION_DDOT":0},{"OBJECT_NAME":"IRIDIUM 155","OBJECT_ID":"2018-061E","EPOCH":"2026-03-05T03:44:38.418144","MEAN_MOTION":14.34217608,"ECCENTRICITY":0.00019517,"INCLINATION":86.3921,"RA_OF_ASC_NODE":100.1938,"ARG_OF_PERICENTER":93.8526,"MEAN_ANOMALY":266.2893,"EPHEMERIS_TYPE":0,"CLASSIFICATION_TYPE":"U","NORAD_CAT_ID":43573,"ELEMENT_SET_NO":999,"REV_AT_EPOCH":39844,"BSTAR":-8.752198e-6,"MEAN_MOTION_DOT":-5.0e-8,"MEAN_MOTION_DDOT":0},{"OBJECT_NAME":"IRIDIUM 154","OBJECT_ID":"2018-061F","EPOCH":"2026-03-05T03:17:15.121248","MEAN_MOTION":14.342225,"ECCENTRICITY":0.00022244,"INCLINATION":86.3922,"RA_OF_ASC_NODE":100.3306,"ARG_OF_PERICENTER":98.6743,"MEAN_ANOMALY":261.4705,"EPHEMERIS_TYPE":0,"CLASSIFICATION_TYPE":"U","NORAD_CAT_ID":43574,"ELEMENT_SET_NO":999,"REV_AT_EPOCH":39849,"BSTAR":0.00010258262,"MEAN_MOTION_DOT":3.07e-6,"MEAN_MOTION_DDOT":0},{"OBJECT_NAME":"IRIDIUM 163","OBJECT_ID":"2018-061G","EPOCH":"2026-03-05T07:51:14.438880","MEAN_MOTION":14.34218109,"ECCENTRICITY":0.000219,"INCLINATION":86.392,"RA_OF_ASC_NODE":100.1697,"ARG_OF_PERICENTER":91.2124,"MEAN_ANOMALY":268.9322,"EPHEMERIS_TYPE":0,"CLASSIFICATION_TYPE":"U","NORAD_CAT_ID":43575,"ELEMENT_SET_NO":999,"REV_AT_EPOCH":39849,"BSTAR":1.8298367e-5,"MEAN_MOTION_DOT":7.1e-7,"MEAN_MOTION_DDOT":0},{"OBJECT_NAME":"IRIDIUM 156","OBJECT_ID":"2018-061H","EPOCH":"2026-03-05T03:53:46.407552","MEAN_MOTION":14.34217909,"ECCENTRICITY":0.00020343,"INCLINATION":86.3921,"RA_OF_ASC_NODE":100.2457,"ARG_OF_PERICENTER":94.4294,"MEAN_ANOMALY":265.7134,"EPHEMERIS_TYPE":0,"CLASSIFICATION_TYPE":"U","NORAD_CAT_ID":43576,"ELEMENT_SET_NO":999,"REV_AT_EPOCH":39846,"BSTAR":5.502041e-6,"MEAN_MOTION_DOT":3.5e-7,"MEAN_MOTION_DDOT":0},{"OBJECT_NAME":"IRIDIUM 164","OBJECT_ID":"2018-061J","EPOCH":"2026-03-05T03:26:22.485984","MEAN_MOTION":14.34217961,"ECCENTRICITY":0.0002322,"INCLINATION":86.3922,"RA_OF_ASC_NODE":100.2924,"ARG_OF_PERICENTER":97.459,"MEAN_ANOMALY":262.687,"EPHEMERIS_TYPE":0,"CLASSIFICATION_TYPE":"U","NORAD_CAT_ID":43577,"ELEMENT_SET_NO":999,"REV_AT_EPOCH":39850,"BSTAR":0.00012191251,"MEAN_MOTION_DOT":3.61e-6,"MEAN_MOTION_DDOT":0},{"OBJECT_NAME":"IRIDIUM 159","OBJECT_ID":"2018-061K","EPOCH":"2026-03-05T04:21:10.485504","MEAN_MOTION":14.34217513,"ECCENTRICITY":0.00022658,"INCLINATION":86.3918,"RA_OF_ASC_NODE":100.215,"ARG_OF_PERICENTER":92.2243,"MEAN_ANOMALY":267.9212,"EPHEMERIS_TYPE":0,"CLASSIFICATION_TYPE":"U","NORAD_CAT_ID":43578,"ELEMENT_SET_NO":999,"REV_AT_EPOCH":39847,"BSTAR":-1.3631517e-5,"MEAN_MOTION_DOT":-1.8e-7,"MEAN_MOTION_DDOT":0},{"OBJECT_NAME":"IRIDIUM 180","OBJECT_ID":"2019-002A","EPOCH":"2026-03-05T06:00:54.952128","MEAN_MOTION":14.34217488,"ECCENTRICITY":0.00023167,"INCLINATION":86.3966,"RA_OF_ASC_NODE":37.0205,"ARG_OF_PERICENTER":85.8515,"MEAN_ANOMALY":274.2946,"EPHEMERIS_TYPE":0,"CLASSIFICATION_TYPE":"U","NORAD_CAT_ID":43922,"ELEMENT_SET_NO":999,"REV_AT_EPOCH":37409,"BSTAR":-9.939699e-6,"MEAN_MOTION_DOT":-8.0e-8,"MEAN_MOTION_DDOT":0},{"OBJECT_NAME":"IRIDIUM 176","OBJECT_ID":"2019-002B","EPOCH":"2026-03-05T05:40:22.005984","MEAN_MOTION":14.72248327,"ECCENTRICITY":0.00024175,"INCLINATION":86.6087,"RA_OF_ASC_NODE":36.9845,"ARG_OF_PERICENTER":88.9396,"MEAN_ANOMALY":271.2098,"EPHEMERIS_TYPE":0,"CLASSIFICATION_TYPE":"U","NORAD_CAT_ID":43923,"ELEMENT_SET_NO":999,"REV_AT_EPOCH":38395,"BSTAR":0.00022023142,"MEAN_MOTION_DOT":1.413e-5,"MEAN_MOTION_DDOT":0},{"OBJECT_NAME":"IRIDIUM 168","OBJECT_ID":"2019-002C","EPOCH":"2026-03-05T04:11:18.295584","MEAN_MOTION":14.3422141,"ECCENTRICITY":0.00022086,"INCLINATION":86.3968,"RA_OF_ASC_NODE":37.1268,"ARG_OF_PERICENTER":86.5984,"MEAN_ANOMALY":273.5464,"EPHEMERIS_TYPE":0,"CLASSIFICATION_TYPE":"U","NORAD_CAT_ID":43924,"ELEMENT_SET_NO":999,"REV_AT_EPOCH":37406,"BSTAR":0.00011643417,"MEAN_MOTION_DOT":3.46e-6,"MEAN_MOTION_DDOT":0}]
