IRIDIUM 152             
1 43479U 18047D   26064.21650789  .00000138  00000+0  42249-4 0  9999
2 43479  86.3981 131.8122 0002287  92.0003 268.1455 14.34218226407583
IRIDIUM 147             
1 43480U 18047E   26064.22284585  .00000273  00000+0  90392-4 0  9991
2 43480  86.3985 131.8132 0002223  99.3031 260.8416 14.34220325407580
IRIDIUM 110             
1 43481U 18047F   26064.22919334  .00000022  00000+0  63217-6 0  9999
2 43481  86.3988 131.8993 0002441  88.8972 271.2504 14.34217759407578
IRIDIUM 162             
1 43482U 18047G   26064.23576351  .00000448  00000+0  12717-3 0  9997
2 43482  86.4507 131.8363 0002113  92.1255 268.0188 14.43283406410136
IRIDIUM 160             
1 43569U 18061A   26064.17502835  .00000052  00000+0  11369-4 0  9992
2 43569  86.3922 100.3059 0002371  91.9191 268.2276 14.34218124398463
IRIDIUM 166             
1 43570U 18061B   26064.33993554  .00000071  00000+0  18324-4 0  9993
2 43570  86.3921 100.1889 0002196  96.0083 264.1363 14.34218022398519
IRIDIUM 158             
1 43571U 18061C   26064.16868478  .00000116  00000+0  34479-4 0  9990
2 43571  86.3922 100.2703 0002126  89.4787 270.6653 14.34217835398455
IRIDIUM 165             
1 43572U 18061D   26064.19405552  .00000134  00000+0  40896-4 0  9994
2 43572  86.3922 100.3035 0002219  97.3972 262.7476 14.34218447398480
IRIDIUM 155             
1 43573U 18061E   26064.15600021 -.00000005  00000+0 -87522-5 0  9996
2 43573  86.3921 100.1938 0001951  93.8526 266.2893 14.34217608398444
IRIDIUM 154             
1 43574U 18061F   26064.13698057  .00000307  00000+0  10258-3 0  9994
2 43574  86.3922 100.3306 0002224  98.6743 261.4705 14.34222500398496
IRIDIUM 163             
1 43575U 18061G   26064.32725045  .00000071  00000+0  18298-4 0  9995
2 43575  86.3920 100.1697 0002190  91.2124 268.9322 14.34218109398497
IRIDIUM 156             
1 43576U 18061H   26064.16234268  .00000035  00000+0  55020-5 0  9995
2 43576  86.3921 100.2457 0002034  94.4294 265.7134 14.34217909398464
IRIDIUM 164             
1 43577U 18061J   26064.14331581  .00000361  00000+0  12191-3 0  9992
2 43577  86.3922 100.2924 0002322  97.4590 262.6870 14.34217961398503
IRIDIUM 159             
1 43578U 18061K   26064.18137136 -.00000018  00000+0 -13632-4 0  9990
2 43578  86.3918 100.2150 0002265  92.2243 267.9212 14.34217513398471
IRIDIUM 180             
1 43922U 19002A   26064.25063602 -.00000008  00000+0 -99397-5 0  9995
2 43922  86.3966  37.0205 0002316  85.8515 274.2946 14.34217488374090
IRIDIUM 176             
1 43923U 19002B   26064.23636581  .00001413  00000+0  22023-3 0  9995
2 43923  86.6087  36.9845 0002417  88.9396 271.2098 14.72248327383957
IRIDIUM 168             
1 43924U 19002C   26064.17451731  .00000346  00000+0  11643-3 0  9991
2 43924  86.3968  37.1268 0002208  86.5984 273.5464 14.34221410374066
